{
    "links": {
        "self": "http://www.neowsapp.com/rest/v1/neo/3278080?api_key=iIulBulltgU6a56xZRHN4H3l9WmuAYTsLGpBGhQ2"
    },
    "id": "3278080",
    "neo_reference_id": "3278080",
    "name": "(2005 JQ81)",
    "designation": "2005 JQ81",
    "nasa_jpl_url": "http://ssd.jpl.nasa.gov/sbdb.cgi?sstr=3278080",
    "absolute_magnitude_h": 19.9,
    "estimated_diameter": {
        "kilometers": {
            "estimated_diameter_min": 0.2783267681,
            "estimated_diameter_max": 0.6223575734
        },
        "meters": {
            "estimated_diameter_min": 278.3267680719,
            "estimated_diameter_max": 622.3575733667
        },
        "miles": {
            "estimated_diameter_min": 0.1729441822,
            "estimated_diameter_max": 0.3867149477
        },
        "feet": {
            "estimated_diameter_min": 913.1455937611,
            "estimated_diameter_max": 2041.8556210042
        }
    },
    "is_potentially_hazardous_asteroid": false,
    "close_approach_data": [
        {
            "close_approach_date": "1957-02-23",
            "close_approach_date_full": "1957-Feb-23 16:44",
            "epoch_date_close_approach": -405587760000,
            "relative_velocity": {
                "kilometers_per_second": "6.9560211469",
                "kilometers_per_hour": "25041.676128763",
                "miles_per_hour": "15559.9237034528"
            },
            "miss_distance": {
                "astronomical": "1.3730587189",
                "lunar": "534.1198416521",
                "kilometers": "205406659.732368743",
                "miles": "127633779.9006769334"
            },
            "orbiting_body": "Juptr"
        },
        {
            "close_approach_date": "2005-07-31",
            "close_approach_date_full": "2005-Jul-31 07:43",
            "epoch_date_close_approach": 1122795780000,
            "relative_velocity": {
                "kilometers_per_second": "20.0005945969",
                "kilometers_per_hour": "72002.1405489091",
                "miles_per_hour": "44739.3300538486"
            },
            "miss_distance": {
                "astronomical": "0.4618031657",
                "lunar": "179.6414314573",
                "kilometers": "69084769.947977059",
                "miles": "42927285.4809950542"
            },
            "orbiting_body": "Earth"
        },
        {
            "close_approach_date": "2016-06-24",
            "close_approach_date_full": "2016-Jun-24 23:10",
            "epoch_date_close_approach": 1466809800000,
            "relative_velocity": {
                "kilometers_per_second": "6.7707218532",
                "kilometers_per_hour": "24374.5986714682",
                "miles_per_hour": "15145.4277133909"
            },
            "miss_distance": {
                "astronomical": "1.3530507609",
                "lunar": "526.3367459901",
                "kilometers": "202413511.832519283",
                "miles": "125773924.0383727854"
            },
            "orbiting_body": "Juptr"
        }
    ],
    "orbital_data": {
        "orbit_id": "8",
        "orbit_determination_date": "2017-04-06 09:10:59",
        "first_observation_date": "2005-05-10",
        "last_observation_date": "2005-06-13",
        "data_arc_in_days": 34,
        "observations_used": 20,
        "orbit_uncertainty": "8",
        "minimum_orbit_intersection": ".147245",
        "jupiter_tisserand_invariant": "2.812",
        "epoch_osculation": "2453508.5",
        "eccentricity": ".7981086313171031",
        "semi_major_axis": "2.616059397626053",
        "inclination": "15.53981271955924",
        "ascending_node_longitude": "223.0368959861517",
        "orbital_period": "1545.502911332269",
        "perihelion_distance": ".5281598123424788",
        "perihelion_argument": "127.9658659550648",
        "aphelion_distance": "4.703958982909628",
        "perihelion_time": "2453602.514126693899",
        "mean_anomaly": "338.1009240670869",
        "mean_motion": ".2329338866723126",
        "equinox": "J2000",
        "orbit_class": {
            "orbit_class_type": "APO",
            "orbit_class_description": "Near-Earth asteroid orbits which cross the Earth’s orbit similar to that of 1862 Apollo",
            "orbit_class_range": "a (semi-major axis) > 1.0 AU; q (perihelion) < 1.017 AU"
        }
    },
    "is_sentry_object": false
}